CCSDS_OMM_VERS = 2.0
CREATION_DATE  = 
ORIGINATOR     = 

OBJECT_NAME    = STARLINK-35595
OBJECT_ID      = 2025-236R
CENTER_NAME    = EARTH
REF_FRAME      = TEME
TIME_SYSTEM    = UTC
MEAN_ELEMENT_THEORY = SGP/SGP4

EPOCH          = 2025-11-17T12:00:02.998944
MEAN_MOTION    = 15.49351215
ECCENTRICITY   = .0000978
INCLINATION    = 53.1591
RA_OF_ASC_NODE = 266.4247
ARG_OF_PERICENTER = 89.3721
MEAN_ANOMALY   = 52.4364

EPHEMERIS_TYPE = 0
CLASSIFICATION_TYPE = U
NORAD_CAT_ID   = 66101
ELEMENT_SET_NO = 999
REV_AT_EPOCH   = 576
BSTAR          = -.19234E-2
MEAN_MOTION_DOT = -.106135E-2
MEAN_MOTION_DDOT = 0

CCSDS_OMM_VERS = 2.0
CREATION_DATE  = 
ORIGINATOR     = 

OBJECT_NAME    = STARLINK-35599
OBJECT_ID      = 2025-236S
CENTER_NAME    = EARTH
REF_FRAME      = TEME
TIME_SYSTEM    = UTC
MEAN_ELEMENT_THEORY = SGP/SGP4

EPOCH          = 2025-11-17T12:00:02.998944
MEAN_MOTION    = 15.49355049
ECCENTRICITY   = .0001088
INCLINATION    = 53.1591
RA_OF_ASC_NODE = 266.4217
ARG_OF_PERICENTER = 94.8837
MEAN_ANOMALY   = 48.8408

EPHEMERIS_TYPE = 0
CLASSIFICATION_TYPE = U
NORAD_CAT_ID   = 66102
ELEMENT_SET_NO = 999
REV_AT_EPOCH   = 576
BSTAR          = -.20768E-2
MEAN_MOTION_DOT = -.11446E-2
MEAN_MOTION_DDOT = 0

CCSDS_OMM_VERS = 2.0
CREATION_DATE  = 
ORIGINATOR     = 

OBJECT_NAME    = STARLINK-35622
OBJECT_ID      = 2025-236T
CENTER_NAME    = EARTH
REF_FRAME      = TEME
TIME_SYSTEM    = UTC
MEAN_ELEMENT_THEORY = SGP/SGP4

EPOCH          = 2025-11-17T12:00:02.998944
MEAN_MOTION    = 15.49313171
ECCENTRICITY   = .0001047
INCLINATION    = 53.1591
RA_OF_ASC_NODE = 266.4132
ARG_OF_PERICENTER = 91.4942
MEAN_ANOMALY   = 56.0743

EPHEMERIS_TYPE = 0
CLASSIFICATION_TYPE = U
NORAD_CAT_ID   = 66103
ELEMENT_SET_NO = 999
REV_AT_EPOCH   = 581
BSTAR          = -.93149E-3
MEAN_MOTION_DOT = -.51918E-3
MEAN_MOTION_DDOT = 0

CCSDS_OMM_VERS = 2.0
CREATION_DATE  = 
ORIGINATOR     = 

OBJECT_NAME    = STARLINK-35452
OBJECT_ID      = 2025-236U
CENTER_NAME    = EARTH
REF_FRAME      = TEME
TIME_SYSTEM    = UTC
MEAN_ELEMENT_THEORY = SGP/SGP4

EPOCH          = 2025-11-17T12:00:02.998944
MEAN_MOTION    = 15.49327112
ECCENTRICITY   = .0001251
INCLINATION    = 53.1590
RA_OF_ASC_NODE = 266.4171
ARG_OF_PERICENTER = 94.3820
MEAN_ANOMALY   = 51.2770

EPHEMERIS_TYPE = 0
CLASSIFICATION_TYPE = U
NORAD_CAT_ID   = 66104
ELEMENT_SET_NO = 999
REV_AT_EPOCH   = 581
BSTAR          = -.14277E-2
MEAN_MOTION_DOT = -.79106E-3
MEAN_MOTION_DDOT = 0

CCSDS_OMM_VERS = 2.0
CREATION_DATE  = 
ORIGINATOR     = 

OBJECT_NAME    = STARLINK-35561
OBJECT_ID      = 2025-236V
CENTER_NAME    = EARTH
REF_FRAME      = TEME
TIME_SYSTEM    = UTC
MEAN_ELEMENT_THEORY = SGP/SGP4

EPOCH          = 2025-11-17T12:00:02.998944
MEAN_MOTION    = 15.49362248
ECCENTRICITY   = .0001313
INCLINATION    = 53.1592
RA_OF_ASC_NODE = 266.4092
ARG_OF_PERICENTER = 88.8604
MEAN_ANOMALY   = 60.6087

EPHEMERIS_TYPE = 0
CLASSIFICATION_TYPE = U
NORAD_CAT_ID   = 66105
ELEMENT_SET_NO = 999
REV_AT_EPOCH   = 576
BSTAR          = -.22097E-2
MEAN_MOTION_DOT = -.121679E-2
MEAN_MOTION_DDOT = 0

CCSDS_OMM_VERS = 2.0
CREATION_DATE  = 
ORIGINATOR     = 

OBJECT_NAME    = STARLINK-35584
OBJECT_ID      = 2025-236W
CENTER_NAME    = EARTH
REF_FRAME      = TEME
TIME_SYSTEM    = UTC
MEAN_ELEMENT_THEORY = SGP/SGP4

EPOCH          = 2025-11-17T12:00:02.998944
MEAN_MOTION    = 15.49289180
ECCENTRICITY   = .0001085
INCLINATION    = 53.1592
RA_OF_ASC_NODE = 266.4044
ARG_OF_PERICENTER = 91.8618
MEAN_ANOMALY   = 59.5438

EPHEMERIS_TYPE = 0
CLASSIFICATION_TYPE = U
NORAD_CAT_ID   = 66106
ELEMENT_SET_NO = 999
REV_AT_EPOCH   = 581
BSTAR          = .18158E-3
MEAN_MOTION_DOT = .9656E-4
MEAN_MOTION_DDOT = 0

CCSDS_OMM_VERS = 2.0
CREATION_DATE  = 
ORIGINATOR     = 

OBJECT_NAME    = STARLINK-35593
OBJECT_ID      = 2025-236X
CENTER_NAME    = EARTH
REF_FRAME      = TEME
TIME_SYSTEM    = UTC
MEAN_ELEMENT_THEORY = SGP/SGP4

EPOCH          = 2025-11-17T12:00:02.998944
MEAN_MOTION    = 15.49364685
ECCENTRICITY   = .0001332
INCLINATION    = 53.1592
RA_OF_ASC_NODE = 266.4004
ARG_OF_PERICENTER = 87.6376
MEAN_ANOMALY   = 65.6650

EPHEMERIS_TYPE = 0
CLASSIFICATION_TYPE = U
NORAD_CAT_ID   = 66107
ELEMENT_SET_NO = 999
REV_AT_EPOCH   = 581
BSTAR          = -.2327E-2
MEAN_MOTION_DOT = -.128021E-2
MEAN_MOTION_DDOT = 0

CCSDS_OMM_VERS = 2.0
CREATION_DATE  = 
ORIGINATOR     = 

OBJECT_NAME    = STARLINK-35590
OBJECT_ID      = 2025-236Y
CENTER_NAME    = EARTH
REF_FRAME      = TEME
TIME_SYSTEM    = UTC
MEAN_ELEMENT_THEORY = SGP/SGP4

EPOCH          = 2025-11-17T12:00:02.998944
MEAN_MOTION    = 15.49362998
ECCENTRICITY   = .000123
INCLINATION    = 53.1591
RA_OF_ASC_NODE = 266.3924
ARG_OF_PERICENTER = 94.2829
MEAN_ANOMALY   = 62.8532

EPHEMERIS_TYPE = 0
CLASSIFICATION_TYPE = U
NORAD_CAT_ID   = 66108
ELEMENT_SET_NO = 999
REV_AT_EPOCH   = 576
BSTAR          = -.2237E-2
MEAN_MOTION_DOT = -.123155E-2
MEAN_MOTION_DDOT = 0

CCSDS_OMM_VERS = 2.0
CREATION_DATE  = 
ORIGINATOR     = 

OBJECT_NAME    = STARLINK-35545
OBJECT_ID      = 2025-236Z
CENTER_NAME    = EARTH
REF_FRAME      = TEME
TIME_SYSTEM    = UTC
MEAN_ELEMENT_THEORY = SGP/SGP4

EPOCH          = 2025-11-17T12:00:02.998944
MEAN_MOTION    = 15.49296191
ECCENTRICITY   = .000108
INCLINATION    = 53.1591
RA_OF_ASC_NODE = 266.3962
ARG_OF_PERICENTER = 85.3491
MEAN_ANOMALY   = 69.8946

EPHEMERIS_TYPE = 0
CLASSIFICATION_TYPE = U
NORAD_CAT_ID   = 66109
ELEMENT_SET_NO = 999
REV_AT_EPOCH   = 581
BSTAR          = -.6201E-4
MEAN_MOTION_DOT = -.3893E-4
MEAN_MOTION_DDOT = 0

CCSDS_OMM_VERS = 2.0
CREATION_DATE  = 
ORIGINATOR     = 

OBJECT_NAME    = STARLINK-35427
OBJECT_ID      = 2025-236AA
CENTER_NAME    = EARTH
REF_FRAME      = TEME
TIME_SYSTEM    = UTC
MEAN_ELEMENT_THEORY = SGP/SGP4

EPOCH          = 2025-11-17T12:00:02.998944
MEAN_MOTION    = 15.49355607
ECCENTRICITY   = .0001021
INCLINATION    = 53.1591
RA_OF_ASC_NODE = 266.3878
ARG_OF_PERICENTER = 90.2838
MEAN_ANOMALY   = 68.7732

EPHEMERIS_TYPE = 0
CLASSIFICATION_TYPE = U
NORAD_CAT_ID   = 66110
ELEMENT_SET_NO = 999
REV_AT_EPOCH   = 581
BSTAR          = -.2052E-2
MEAN_MOTION_DOT = -.113119E-2
MEAN_MOTION_DDOT = 0

CCSDS_OMM_VERS = 2.0
CREATION_DATE  = 
ORIGINATOR     = 

OBJECT_NAME    = STARLINK-35574
OBJECT_ID      = 2025-236AB
CENTER_NAME    = EARTH
REF_FRAME      = TEME
TIME_SYSTEM    = UTC
MEAN_ELEMENT_THEORY = SGP/SGP4

EPOCH          = 2025-11-17T12:00:02.998944
MEAN_MOTION    = 15.49356476
ECCENTRICITY   = .0001091
INCLINATION    = 53.1591
RA_OF_ASC_NODE = 266.3841
ARG_OF_PERICENTER = 89.5748
MEAN_ANOMALY   = 71.3998

EPHEMERIS_TYPE = 0
CLASSIFICATION_TYPE = U
NORAD_CAT_ID   = 66111
ELEMENT_SET_NO = 999
REV_AT_EPOCH   = 576
BSTAR          = -.21119E-2
MEAN_MOTION_DOT = -.116364E-2
MEAN_MOTION_DDOT = 0

CCSDS_OMM_VERS = 2.0
CREATION_DATE  = 
ORIGINATOR     = 

OBJECT_NAME    = STARLINK-35531
OBJECT_ID      = 2025-236AC
CENTER_NAME    = EARTH
REF_FRAME      = TEME
TIME_SYSTEM    = UTC
MEAN_ELEMENT_THEORY = SGP/SGP4

EPOCH          = 2025-11-17T12:00:02.998944
MEAN_MOTION    = 15.49351523
ECCENTRICITY   = .0001155
INCLINATION    = 53.1592
RA_OF_ASC_NODE = 266.3762
ARG_OF_PERICENTER = 89.4123
MEAN_ANOMALY   = 75.3990

EPHEMERIS_TYPE = 0
CLASSIFICATION_TYPE = U
NORAD_CAT_ID   = 66112
ELEMENT_SET_NO = 999
REV_AT_EPOCH   = 581
BSTAR          = -.19501E-2
MEAN_MOTION_DOT = -.107587E-2
MEAN_MOTION_DDOT = 0

