STARLINK-35595          
1 66101U 25236R   25321.50003471 -.00106135  00000+0 -19234-2 0  9993
2 66101  53.1591 266.4247 0000978  89.3721  52.4364 15.49351215  5763
STARLINK-35599          
1 66102U 25236S   25321.50003471 -.00114460  00000+0 -20768-2 0  9998
2 66102  53.1591 266.4217 0001088  94.8837  48.8408 15.49355049  5760
STARLINK-35622          
1 66103U 25236T   25321.50003471 -.00051918  00000+0 -93149-3 0  9991
2 66103  53.1591 266.4132 0001047  91.4942  56.0743 15.49313171  5811
STARLINK-35452          
1 66104U 25236U   25321.50003471 -.00079106  00000+0 -14277-2 0  9995
2 66104  53.1590 266.4171 0001251  94.3820  51.2770 15.49327112  5815
STARLINK-35561          
1 66105U 25236V   25321.50003471 -.00121679  00000+0 -22097-2 0  9998
2 66105  53.1592 266.4092 0001313  88.8604  60.6087 15.49362248  5765
STARLINK-35584          
1 66106U 25236W   25321.50003471  .00009656  00000+0  18158-3 0  9991
2 66106  53.1592 266.4044 0001085  91.8618  59.5438 15.49289180  5814
STARLINK-35593          
1 66107U 25236X   25321.50003471 -.00128021  00000+0 -23270-2 0  9992
2 66107  53.1592 266.4004 0001332  87.6376  65.6650 15.49364685  5818
STARLINK-35590          
1 66108U 25236Y   25321.50003471 -.00123155  00000+0 -22370-2 0  9996
2 66108  53.1591 266.3924 0001230  94.2829  62.8532 15.49362998  5769
STARLINK-35545          
1 66109U 25236Z   25321.50003471 -.00003893  00000+0 -62010-4 0  9990
2 66109  53.1591 266.3962 0001080  85.3491  69.8946 15.49296191  5814
STARLINK-35427          
1 66110U 25236AA  25321.50003471 -.00113119  00000+0 -20520-2 0  9993
2 66110  53.1591 266.3878 0001021  90.2838  68.7732 15.49355607  5816
STARLINK-35574          
1 66111U 25236AB  25321.50003471 -.00116364  00000+0 -21119-2 0  9994
2 66111  53.1591 266.3841 0001091  89.5748  71.3998 15.49356476  5768
STARLINK-35531          
1 66112U 25236AC  25321.50003471 -.00107587  00000+0 -19501-2 0  9994
2 66112  53.1592 266.3762 0001155  89.4123  75.3990 15.49351523  5819
